norad_id,name,regime,epoch,line1,line2,inclination,eccentricity,mean_motion,raan,arg_pericenter,mean_anomaly
19789,COSMOS 1998,LEO,19030.51980742,1 19789U 89009E   19030.51980742  .00000035  00000-0  13120-3 0  2686,2 19789  82.6087 251.4468 0015858 302.2602  57.6953 12.64857426383520,82.6087,0.0015858,12.64857426,251.4468,302.2602,57.6953
19789,COSMOS 1998,LEO,19030.59890722,1 19789U 89009E   19030.59890722 +.00000034 +00000-0 +12666-3 0 0001,2 19789 082.6087 251.3963 0015855 302.0614 057.8938 12.6485742638335,82.6087,0.0015855,12.64857426,251.3963,302.0614,57.8938
19789,COSMOS 1998,LEO,19031.62720471,1 19789U 89009E   19031.62720471 +.00000042 +00000-0 +16917-3 0 0001,2 19789 082.6086 250.7398 0015825 299.5880 060.3635 12.6485747738348,82.6086,0.0015825,12.64857477,250.7398,299.588,60.3635
19789,COSMOS 1998,LEO,19032.57640238,1 19789U 89009E   19032.57640238  .00000052  00000-0  22233-3 0  2692,2 19789  82.6085 250.1338 0015803 297.3024  62.6459 12.64857557383782,82.6085,0.0015803,12.64857557,250.1338,297.3024,62.6459
19789,COSMOS 1998,LEO,19033.68379969,1 19789U 89009E   19033.68379969 +.00000052 +00000-0 +22152-3 0 0001,2 19789 082.6084 249.4269 0015774 294.6422 065.3027 12.6485759838374,82.6084,0.0015774,12.64857598,249.4269,294.6422,65.3027
19789,COSMOS 1998,LEO,19034.87029676,1 19789U 89009E   19034.87029676  .00000051  00000-0  21782-3 0  2703,2 19789  82.6083 248.6695 0015751 291.7614  68.1802 12.64857673384078,82.6083,0.0015751,12.64857673,248.6695,291.7614,68.1802
19789,COSMOS 1998,LEO,19034.94939657,1 19789U 89009E   19034.94939657 +.00000052 +00000-0 +22353-3 0 0001,2 19789 082.6083 248.6190 0015750 291.5706 068.3708 12.6485768738390,82.6083,0.001575,12.64857687,248.619,291.5706,68.3708
19789,COSMOS 1998,LEO,19035.58219502,1 19789U 89009E   19035.58219502 +.00000045 +00000-0 +18518-3 0 0001,2 19789 082.6082 248.2150 0015743 290.0480 069.8918 12.6485769938398,82.6082,0.0015743,12.64857699,248.215,290.048,69.8918
19789,COSMOS 1998,LEO,19036.92689174,1 19789U 89009E   19036.92689174 +.00000033 +00000-0 +11902-3 0 0001,2 19789 082.6081 247.3565 0015722 286.7860 073.1508 12.6485773638415,82.6081,0.0015722,12.64857736,247.3565,286.786,73.1508
19789,COSMOS 1998,LEO,19037.08509138,1 19789U 89009E   19037.08509138  .00000029  00000-0  96926-4 0  2714,2 19789  82.6080 247.2555 0015721 286.4048  73.5316 12.64857729384357,82.608,0.0015721,12.64857729,247.2555,286.4048,73.5316
19789,COSMOS 1998,LEO,19037.55969023,1 19789U 89009E   19037.55969023 +.00000024 +00000-0 +73982-4 0 0001,2 19789 082.6080 246.9525 0015713 285.2458 074.6897 12.6485773738423,82.608,0.0015713,12.64857737,246.9525,285.2458,74.6897
19789,COSMOS 1998,LEO,19038.58798789,1 19789U 89009E   19038.58798789 +.00000008 +00000-0 -15495-4 0 0001,2 19789 082.6079 246.2960 0015699 282.7634 077.1704 12.6485768838436,82.6079,0.0015699,12.64857688,246.296,282.7634,77.1704
19789,COSMOS 1998,LEO,19038.74618756,1 19789U 89009E   19038.74618756 +.00000003 +00000-0 -39104-4 0 0001,2 19789 082.6078 246.1949 0015698 282.3972 077.5364 12.6485765638438,82.6078,0.0015698,12.64857656,246.1949,282.3972,77.5364
19789,COSMOS 1998,LEO,19039.53718579,1 19789U 89009E   19039.53718579 -.00000001  00000-0 -61357-4 0  2720,2 19789  82.6078 245.6900 0015691 280.4864  79.4460 12.64857669384668,82.6078,0.0015691,12.64857669,245.69,280.4864,79.446
19789,COSMOS 1998,LEO,19039.93268494,1 19789U 89009E   19039.93268494 -.00000002 +00000-0 -65224-4 0 0001,2 19789 082.6078 245.4375 0015688 279.5183 080.4136 12.6485765038453,82.6078,0.0015688,12.6485765,245.4375,279.5183,80.4136
19789,COSMOS 1998,LEO,19040.88188296,1 19789U 89009E   19040.88188296 -.00000006 +00000-0 -87236-4 0 0001,2 19789 082.6077 244.8315 0015679 277.2292 082.7018 12.6485761538465,82.6077,0.0015679,12.64857615,244.8315,277.2292,82.7018
19789,COSMOS 1998,LEO,19041.83108100,1 19789U 89009E   19041.83108100 -.00000000  00000-0 -57782-4 0  2736,2 19789  82.6076 244.2254 0015673 274.9354  84.9949 12.64857645384954,82.6076,0.0015673,12.64857645,244.2254,274.9354,84.9949
19789,COSMOS 1998,LEO,19041.91018085,1 19789U 89009E   19041.91018085 +.00000002 +00000-0 -47847-4 0 0001,2 19789 082.6076 244.1749 0015673 274.7489 085.1814 12.6485765338478,82.6076,0.0015673,12.64857653,244.1749,274.7489,85.1814
19789,COSMOS 1998,LEO,19042.93847885,1 19789U 89009E   19042.93847885 +.00000009 +00000-0 -10750-4 0 0001,2 19789 082.6076 243.5184 0015673 272.2322 087.6976 12.6485764838491,82.6076,0.0015673,12.64857648,243.5184,272.2322,87.6976
19789,COSMOS 1998,LEO,19043.57127763,1 19789U 89009E   19043.57127763 +.00000012 +00000-0 +88482-5 0 0001,2 19789 082.6075 243.1145 0015672 270.6811 089.2486 12.6485767638499,82.6075,0.0015672,12.64857676,243.1145,270.6811,89.2486
19789,COSMOS 1998,LEO,19044.04587674,1 19789U 89009E   19044.04587674  .00000022  00000-0  62269-4 0  2748,2 19789  82.6076 242.8114 0015671 269.5239  90.4057 12.64857718385238,82.6076,0.0015671,12.64857718,242.8114,269.5239,90.4057
19789,COSMOS 1998,LEO,19044.91597519,1 19789U 89009E   19044.91597519 +.00000032 +00000-0 +11535-3 0 0001,2 19789 082.6076 242.2559 0015672 267.4101 092.5198 12.6485773238516,82.6076,0.0015672,12.64857732,242.2559,267.4101,92.5198
19789,COSMOS 1998,LEO,19045.54877398,1 19789U 89009E   19045.54877398 +.00000039 +00000-0 +15440-3 0 0001,2 19789 082.6076 241.8519 0015677 265.8937 094.0363 12.6485779738524,82.6076,0.0015677,12.64857797,241.8519,265.8937,94.0363
19789,COSMOS 1998,LEO,19045.94427324,1 19789U 89009E   19045.94427324 +.00000044 +00000-0 +18118-3 0 0001,2 19789 082.6076 241.5994 0015678 264.9204 095.0099 12.6485782738529,82.6076,0.0015678,12.64857827,241.5994,264.9204,95.0099
19789,COSMOS 1998,LEO,19046.49797217,1 19789U 89009E   19046.49797217  .00000051  00000-0  21749-3 0  2755,2 19789  82.6076 241.2458 0015680 263.5722  96.3585 12.64857906385547,82.6076,0.001568,12.64857906,241.2458,263.5722,96.3585
19789,COSMOS 1998,LEO,19046.57707201,1 19789U 89009E   19046.57707201 +.00000051 +00000-0 +21982-3 0 0001,2 19789 082.6076 241.1953 0015680 263.3800 096.5508 12.6485791938537,82.6076,0.001568,12.64857919,241.1953,263.38,96.5508
19789,COSMOS 1998,LEO,19047.92176953,1 19789U 89009E   19047.92176953 +.00000055 +00000-0 +23827-3 0 0001,2 19789 082.6077 240.3368 0015687 260.1204 099.8118 12.6485798938554,82.6077,0.0015687,12.64857989,240.3368,260.1204,99.8118
19789,COSMOS 1998,LEO,19048.63366822,1 19789U 89009E   19048.63366822  .00000044  00000-0  17838-3 0  2764,2 19789  82.6077 239.8823 0015692 258.4123 101.5208 12.64857998385810,82.6077,0.0015692,12.64857998,239.8823,258.4123,101.5208
19789,COSMOS 1998,LEO,19048.87096780,1 19789U 89009E   19048.87096780 +.00000043 +00000-0 +17660-3 0 0001,2 19789 082.6077 239.7308 0015695 257.8258 102.1076 12.6485800338566,82.6077,0.0015695,12.64858003,239.7308,257.8258,102.1076
19789,COSMOS 1998,LEO,19049.89926593,1 19789U 89009E   19049.89926593 +.00000029 +00000-0 +10074-3 0 0001,2 19789 082.6077 239.0743 0015705 255.3241 104.6111 12.6485800038579,82.6077,0.0015705,12.64858,239.0743,255.3241,104.6111
19789,COSMOS 1998,LEO,19050.92756407,1 19789U 89009E   19050.92756407 +.00000015 +00000-0 +24057-4 0 0001,2 19789 082.6077 238.4178 0015716 252.8151 107.1221 12.6485801738592,82.6077,0.0015716,12.64858017,238.4178,252.8151,107.1221
19789,COSMOS 1998,LEO,19051.00666392,1 19789U 89009E   19051.00666392  .00000014  00000-0  17497-4 0  2774,2 19789  82.6077 238.3673 0015717 252.6209 107.3165 12.64858024386117,82.6077,0.0015717,12.64858024,238.3673,252.6209,107.3165
19789,COSMOS 1998,LEO,19051.87676242,1 19789U 89009E   19051.87676242 +.00000006 +00000-0 -22604-4 0 0001,2 19789 082.6077 237.8118 0015730 250.5065 109.4329 12.6485802338604,82.6077,0.001573,12.64858023,237.8118,250.5065,109.4329
19789,COSMOS 1998,LEO,19052.50956132,1 19789U 89009E   19052.50956132 +.00000004 +00000-0 -33204-4 0 0001,2 19789 082.6077 237.4077 0015745 249.0267 110.9142 12.6485804338612,82.6077,0.0015745,12.64858043,237.4077,249.0267,110.9142
19789,COSMOS 1998,LEO,19052.90506066,1 19789U 89009E   19052.90506066 +.00000004 +00000-0 -37133-4 0 0001,2 19789 082.6077 237.1552 0015755 248.0708 111.8710 12.6485804438617,82.6077,0.0015755,12.64858044,237.1552,248.0708,111.871
19789,COSMOS 1998,LEO,19053.45875977,1 19789U 89009E   19053.45875977  .00000002  00000-0 -48061-4 0  2786,2 19789  82.6077 236.8017 0015755 246.6995 113.2439 12.64858066386429,82.6077,0.0015755,12.64858066,236.8017,246.6995,113.2439
19789,COSMOS 1998,LEO,19053.93335902,1 19789U 89009E   19053.93335902 +.00000003 +00000-0 -39485-4 0 0001,2 19789 082.6077 236.4987 0015773 245.6065 114.3381 12.6485807038630,82.6077,0.0015773,12.6485807,236.4987,245.6065,114.3381
19789,COSMOS 1998,LEO,19054.88255755,1 19789U 89009E   19054.88255755 +.00000012 +00000-0 +50354-5 0 0001,2 19789 082.6078 235.8928 0015781 243.2366 116.7112 12.6485810838642,82.6078,0.0015781,12.64858108,235.8928,243.2366,116.7112
19789,COSMOS 1998,LEO,19055.51535658,1 19789U 89009E   19055.51535658  .00000014  00000-0  16513-4 0  2794,2 19789  82.6078 235.4888 0015799 241.7286 118.2212 12.64858128386689,82.6078,0.0015799,12.64858128,235.4888,241.7286,118.2212
19789,COSMOS 1998,LEO,19055.91085602,1 19789U 89009E   19055.91085602 +.00000022 +00000-0 +59748-4 0 0001,2 19789 082.6079 235.2363 0015809 240.7813 119.1699 12.6485815638655,82.6079,0.0015809,12.64858156,235.2363,240.7813,119.1699
19789,COSMOS 1998,LEO,19056.93915456,1 19789U 89009E   19056.93915456 +.00000033 +00000-0 +11944-3 0 0001,2 19789 082.6080 234.5798 0015840 238.3184 121.6364 12.6485818738668,82.608,0.001584,12.64858187,234.5798,238.3184,121.6364
19789,COSMOS 1998,LEO,19057.57195369,1 19789U 89009E   19057.57195369  .00000036  00000-0  13647-3 0  2803,2 19789  82.6082 234.1758 0015844 236.7714 123.1860 12.64858212386944,82.6082,0.0015844,12.64858212,234.1758,236.7714,123.186
